     2.100          NAVIGATION                              RINEX VERSION / TYPE
fic2rin                                 03/29/2011 00:27:01 PGM / RUN BY / DATE
                                                            END OF HEADER
11 11  3 28  6  0  0.0 -.138015951961D-03 -.306954461848D-11  .000000000000D+00
     .970000000000D+02  .159687500000D+02  .641562437936D-08  .274059496135D+00
     .103749334812D-05  .116689307615D-01  .809505581856D-05  .515349986839D+04
     .108000000000D+06 -.689178705215D-07 -.114334008459D+00  .141561031342D-06
     .888417705958D+00  .183218750000D+03  .917587771660D+00 -.907573518366D-08
     .151792037033D-09  .100000000000D+01  .162900000000D+04  .000000000000D+00
     .340000000000D+01  .000000000000D+00 -.116415321827D-07  .970000000000D+02
     .100806000000D+06  .400000000000D+01
12 11  3 28  6  0  0.0 -.160303898156D-04  .284217094304D-11  .000000000000D+00
     .380000000000D+02 -.608437500000D+02  .450733060555D-08  .178351915107D+00
    -.320374965668D-05  .369467248674D-02  .557303428650D-05  .515377780724D+04
     .108000000000D+06  .335276126862D-07 -.194294041177D+01 -.204890966415D-07
     .974202670606D+00  .281500000000D+03 -.253880372805D+00 -.815819696451D-08
    -.600024993449D-10  .100000000000D+01  .162900000000D+04  .000000000000D+00
     .240000000000D+01  .000000000000D+00 -.121071934700D-07  .380000000000D+02
     .100806000000D+06  .400000000000D+01
13 11  3 28  6  0  0.0  .277370680124D-03 -.147792889038D-11  .000000000000D+00
     .860000000000D+02  .426250000000D+02  .362265089795D-08  .266091407944D+01
     .226311385632D-05  .465023098513D-02  .949390232563D-05  .515362794113D+04
     .108000000000D+06  .335276126862D-07  .231023667296D+01  .149011611938D-07
     .990205123321D+00  .210281250000D+03  .179909797929D+01 -.755817197106D-08
    -.832177520677D-10  .100000000000D+01  .162900000000D+04  .000000000000D+00
     .240000000000D+01  .000000000000D+00 -.111758708954D-07  .860000000000D+02
     .100806000000D+06  .400000000000D+01
14 11  3 28  6  0  0.0  .140332151204D-03  .238742359215D-11  .000000000000D+00
     .410000000000D+02  .569687500000D+02  .369229665612D-08  .264230316626D+01
     .296346843243D-05  .560753734317D-02  .930018723011D-05  .515365100479D+04
     .108000000000D+06  .558793544769D-07  .228643380792D+01 -.633299350739D-07
     .983260361541D+00  .211156250000D+03 -.209215131327D+01 -.758817322073D-08
    -.164292557730D-10  .100000000000D+01  .162900000000D+04  .000000000000D+00
     .240000000000D+01  .000000000000D+00 -.884756445885D-08  .410000000000D+02
     .100806000000D+06  .400000000000D+01
15 11  3 28  6  0  0.0 -.139790121466D-03  .306954461848D-11  .000000000000D+00
     .600000000000D+01  .376562500000D+02  .460126308965D-08  .224431131571D+01
     .198930501938D-05  .339894159697D-02  .871345400810D-05  .515359423637D+04
     .108000000000D+06 -.111758708954D-07  .221258365958D+01  .372529029846D-07
     .950449225865D+00  .206468750000D+03 -.684355432779D-01 -.808426531353D-08
    -.136077096729D-09  .100000000000D+01  .162900000000D+04  .000000000000D+00
     .240000000000D+01  .000000000000D+00 -.977888703346D-08  .600000000000D+01
     .100806000000D+06  .400000000000D+01
16 11  3 28  6  0  0.0 -.160925090313D-03 -.284217094304D-11  .000000000000D+00
     .250000000000D+02 -.762500000000D+02  .443661337418D-08 -.218962937920D+01
    -.396743416786D-05  .629943236709D-02  .578723847866D-05  .515377431297D+04
     .108000000000D+06 -.949949026108D-07 -.192516330776D+01 -.782310962677D-07
     .975240084333D+00  .278218750000D+03 -.153528632524D+00 -.810426614664D-08
    -.546451333320D-10  .100000000000D+01  .162900000000D+04  .000000000000D+00
     .240000000000D+01  .000000000000D+00 -.977888703346D-08  .250000000000D+02
     .100806000000D+06  .400000000000D+01
17 11  3 28  6  0  0.0  .184154603630D-03  .227373675443D-12  .000000000000D+00
     .860000000000D+02 -.506250000000D+02  .439304013061D-08  .301070283049D+01
    -.262632966042D-05  .623085675761D-02  .973232090473D-05  .515373962402D+04
     .108000000000D+06 -.204890966415D-07 -.882068027068D+00 -.106170773506D-06
     .961052909608D+00  .189968750000D+03 -.241798751057D+01 -.781603985515D-08
     .203579908492D-10  .100000000000D+01  .162900000000D+04  .000000000000D+00
     .240000000000D+01  .000000000000D+00 -.102445483208D-07  .860000000000D+02
     .100806000000D+06  .400000000000D+01
18 11  3 28  6  0  0.0  .128815881908D-03  .204636307899D-11  .000000000000D+00
     .270000000000D+02  .756250000000D+01  .516378652101D-08 -.191386337595D+01
     .299885869026D-06  .120393837569D-01  .657141208649D-05  .515376581573D+04
     .108000000000D+06  .169500708580D-06  .120051764816D+01 -.145286321640D-06
     .933509914561D+00  .238031250000D+03 -.226880012548D+01 -.817498337801D-08
    -.204651381694D-09  .100000000000D+01  .162900000000D+04  .000000000000D+00
     .240000000000D+01  .000000000000D+00 -.107102096081D-07  .270000000000D+02
     .100806000000D+06  .400000000000D+01
19 11  3 28  6  0  0.0 -.124599318951D-03 -.375166564481D-11  .000000000000D+00
     .830000000000D+02 -.522187500000D+02  .451768817985D-08  .233082445953D+01
    -.252947211266D-05  .712990097236D-02  .102389603853D-04  .515364321136D+04
     .108000000000D+06 -.113621354103D-06 -.827859561068D+00  .182539224625D-06
     .958617115896D+00  .181593750000D+03 -.103028287885D-01 -.792854454142D-08
     .111076055335D-09  .100000000000D+01  .162900000000D+04  .000000000000D+00
     .240000000000D+01  .000000000000D+00 -.149011611938D-07  .830000000000D+02
     .100806000000D+06  .400000000000D+01
20 11  3 28  6  0  0.0  .487845391035D-04  .113686837722D-12  .000000000000D+00
     .400000000000D+02  .518750000000D+01  .532236455499D-08 -.152854274103D+01
     .270083546638D-06  .469521025661D-02  .646524131298D-05  .515369364166D+04
     .108000000000D+06  .100582838058D-06  .114656289458D+01  .763684511185D-07
     .933653937383D+00  .240312500000D+03  .128118506497D+01 -.845428072616D-08
    -.312870175156D-09  .100000000000D+01  .162900000000D+04  .000000000000D+00
     .240000000000D+01  .000000000000D+00 -.791624188423D-08  .400000000000D+02
     .100806000000D+06  .400000000000D+01
21 11  3 28  6  0  0.0 -.133452937007D-03 -.261479726760D-11  .000000000000D+00
     .630000000000D+02  .238437500000D+02  .544736976196D-08 -.633964853809D+00
     .132806599140D-05  .175204450497D-01  .699982047081D-05  .515377106094D+04
     .108000000000D+06  .117346644402D-06  .145944367809D+00  .327825546265D-06
     .932257238290D+00  .228343750000D+03 -.238916293345D+01 -.869071914619D-08
     .717887045734D-10  .100000000000D+01  .162900000000D+04  .000000000000D+00
     .240000000000D+01  .000000000000D+00 -.116415321827D-07  .630000000000D+02
     .100806000000D+06  .400000000000D+01
22 11  3 28  6  0  0.0  .151127111167D-03 -.682121026330D-12  .000000000000D+00
     .740000000000D+02  .600000000000D+01  .522128891621D-08 -.270859712767D+01
     .223517417908D-06  .544167694170D-02  .685453414917D-05  .515370494843D+04
     .108000000000D+06  .428408384323D-07  .120477319493D+01 -.316649675369D-07
     .931202806438D+00  .231906250000D+03 -.196592577185D+01 -.825927260328D-08
    -.271439877989D-09  .100000000000D+01  .162900000000D+04  .000000000000D+00
     .240000000000D+01  .000000000000D+00 -.172294676304D-07  .740000000000D+02
     .100806000000D+06  .400000000000D+01
23 11  3 28  6  0  0.0  .317203346640D-03 -.250111042988D-11  .000000000000D+00
     .770000000000D+02  .390312500000D+02  .421017537070D-08  .189996904378D+01
     .212900340557D-05  .706875417382D-02  .972300767899D-05  .515358164215D+04
     .108000000000D+06 -.335276126862D-07  .224204011491D+01  .102445483208D-06
     .964922114342D+00  .193187500000D+03  .313011493189D+01 -.792747306822D-08
    -.189293599124D-09  .100000000000D+01  .162900000000D+04  .000000000000D+00
     .240000000000D+01  .000000000000D+00 -.200234353542D-07  .770000000000D+02
     .100806000000D+06  .400000000000D+01
24 11  3 28  6  0  0.0  .376922544092D-03  .306954461848D-11  .000000000000D+00
     .510000000000D+02  .217187500000D+02  .499270796633D-08  .117555527864D+01
     .119954347610D-05  .597254256718D-02  .735186040401D-05  .515371949196D+04
     .108000000000D+06  .856816768646D-07  .189688602732D+00  .596046447754D-07
     .948849552741D+00  .226718750000D+03 -.298613992391D+00 -.821569935971D-08
     .846463830045D-10  .100000000000D+01  .162900000000D+04  .000000000000D+00
     .240000000000D+01  .000000000000D+00 -.139698386192D-08  .510000000000D+02
     .100806000000D+06  .400000000000D+01
25 11  3 28  6  0  0.0 -.832136720419D-06 -.454747350886D-12  .000000000000D+00
     .910000000000D+02 -.611875000000D+02  .471448209139D-08 -.154374421391D+01
    -.320747494698D-05  .551588251255D-03  .537000596523D-05  .515367798424D+04
     .108000000000D+06 -.745058059692D-08 -.197207466524D+01  .186264514923D-07
     .962986190960D+00  .278781250000D+03  .866516966504D+00 -.824605776712D-08
    -.592881838766D-10  .100000000000D+01  .162900000000D+04  .000000000000D+00
     .340000000000D+01  .000000000000D+00  .465661287308D-08  .910000000000D+02
     .100806000000D+06  .400000000000D+01
26 11  3 28  6  0  0.0 -.156867783517D-03 -.101181285572D-10  .000000000000D+00
     .520000000000D+02  .305625000000D+02  .374015579250D-08  .156944439007D+01
     .142864882946D-05  .204319136683D-01  .921636819839D-05  .515365283775D+04
     .108000000000D+06 -.398606061935D-06  .230569943546D+01 -.271946191788D-06
     .987845641268D+00  .219687500000D+03  .113150319309D+01 -.782818321811D-08
    -.789318592573D-10  .100000000000D+01  .162900000000D+04  .000000000000D+00
     .240000000000D+01  .000000000000D+00 -.651925802231D-08  .520000000000D+02
     .100806000000D+06  .400000000000D+01
